HIMAWARI-8              
1 40267U 14060A   24231.61376875 -.00000279  00000+0  00000+0 0  9992
2 40267   0.0408 240.8343 0000903 287.9271 160.3242  1.00270952 36064
